STARLINK BA             
1 56422U 23061BA  23131.25001157 -.00855116  00000+0 -64878-2 0  9994
2 56422  43.0091  69.6176 0001604 272.1850 120.1750 15.73830227  1396
STARLINK BB             
1 56423U 23061BB  23131.25001157 -.00858132  00000+0 -65193-2 0  9997
2 56423  43.0085  69.6185 0001593 274.5942 117.2810 15.73808419  1397
STARLINK BC             
1 56424U 23061BC  23131.25001157 -.00857943  00000+0 -64983-2 0  9993
2 56424  43.0088  69.6152 0001674 274.5310 118.8119 15.73876104  1399
STARLINK BD             
1 56425U 23061BD  23131.25001157 -.00856978  00000+0 -64966-2 0  9992
2 56425  43.0081  69.6160 0001575 275.2388 117.6128 15.73854509  1397
STARLINK BE             
1 56426U 23061BE  23131.25001157 -.00855711  00000+0 -64669-2 0  9997
2 56426  43.0091  69.6128 0001619 270.8593 123.4533 15.73921745  1393
STARLINK BF             
1 56427U 23061BF  23131.25001157 -.00854426  00000+0 -64627-2 0  9994
2 56427  43.0084  69.6137 0001575 275.0188 118.8070 15.73898969  1399
STARLINK BG             
1 56428U 23061BG  23131.25001157 -.00855425  00000+0 -64583-2 0  9996
2 56428  43.0087  69.6116 0001593 269.5507 125.2506 15.73944026  1395
STARLINK BH             
1 56429U 23061BH  23131.25001157 -.00852518  00000+0 -64280-2 0  9991
2 56429  43.0080  69.6099 0001559 270.2268 125.0574 15.73965950  1396
FALCON 9 DEB            
1 56430U 23061BJ  23131.15922386  .00273482  34543-4  98728-3 0  9992
2 56430  43.0174  69.8648 0027494  28.4878 331.7492 15.87252607  1095
FALCON 9 DEB            
1 56431U 23061BK  23131.15769091  .00305323  41321-4  10839-2 0  9993
2 56431  43.0150  69.8521 0024227  32.4271 327.8087 15.87713831  1090
FALCON 9 DEB            
1 56432U 23061BL  23131.15341366  .00311675  43192-4  10492-2 0  9995
2 56432  43.0111  69.8138 0023015  20.6657 339.5143 15.88811551  1095
FALCON 9 DEB            
1 56433U 23061BM  23131.15233276  .00282971  37004-4  94985-3 0  9997
2 56433  43.0108  69.8028 0021307  23.2277 336.9556 15.88949399  1090
2023-062A               
1 56442U 23062A   23130.44809272  .00000037  00000+0  00000+0 0  9997
2 56442  32.7403 134.2775 0010585 255.0056 104.9442 15.06466504   363
2023-062B               
1 56443U 23062B   23130.44679108  .00000037  00000+0  00000+0 0  9991
2 56443  32.7414 134.2797 0013101 249.0629 110.8641 15.07291747   358
2023-062C               
1 56444U 23062C   23130.44637374  .00000038  00000+0  00000+0 0  9992
2 56444  32.7380 134.2693 0015293 241.8360 118.0762 15.07549053   329
2023-062D               
1 56445U 23062D   23130.45023246 -.00000045  00000+0  00000+0 0  9990
2 56445  35.4804 135.6447 0015125 253.7026 106.2036 15.05452413   333
2023-063A               
1 56446U 23063A   23130.80036398 -.00000365  00000+0  00000+0 0  9998
2 56446  41.5109  23.2410 0003537 172.6828 260.5510 15.65047358    37
2023-063B               
1 56447U 23063B   23130.99339794  .01747936  74876-5  12958-2 0  9993
2 56447  41.4821  21.9415 0088769 177.1472 312.3364 16.06071796    57
